{
    "links": {
        "self": "http://www.neowsapp.com/rest/v1/neo/54016213?api_key=iIulBulltgU6a56xZRHN4H3l9WmuAYTsLGpBGhQ2"
    },
    "id": "54016213",
    "neo_reference_id": "54016213",
    "name": "(2020 FV)",
    "designation": "2020 FV",
    "nasa_jpl_url": "http://ssd.jpl.nasa.gov/sbdb.cgi?sstr=54016213",
    "absolute_magnitude_h": 24.869,
    "estimated_diameter": {
        "kilometers": {
            "estimated_diameter_min": 0.0282328666,
            "estimated_diameter_max": 0.063130609
        },
        "meters": {
            "estimated_diameter_min": 28.2328666326,
            "estimated_diameter_max": 63.1306089902
        },
        "miles": {
            "estimated_diameter_min": 0.0175430846,
            "estimated_diameter_max": 0.0392275296
        },
        "feet": {
            "estimated_diameter_min": 92.6275181629,
            "estimated_diameter_max": 207.1214271994
        }
    },
    "is_potentially_hazardous_asteroid": false,
    "close_approach_data": [
        {
            "close_approach_date": "2019-09-22",
            "close_approach_date_full": "2019-Sep-22 08:23",
            "epoch_date_close_approach": 1569140580000,
            "relative_velocity": {
                "kilometers_per_second": "17.7494704941",
                "kilometers_per_hour": "63898.0937789378",
                "miles_per_hour": "39703.7905483628"
            },
            "miss_distance": {
                "astronomical": "0.1750737373",
                "lunar": "68.1036838097",
                "kilometers": "26190658.193019551",
                "miles": "16274120.3601537638"
            },
            "orbiting_body": "Earth"
        },
        {
            "close_approach_date": "2020-03-15",
            "close_approach_date_full": "2020-Mar-15 04:33",
            "epoch_date_close_approach": 1584246780000,
            "relative_velocity": {
                "kilometers_per_second": "18.6713355374",
                "kilometers_per_hour": "67216.8079346342",
                "miles_per_hour": "41765.9104636065"
            },
            "miss_distance": {
                "astronomical": "0.0597341528",
                "lunar": "23.2365854392",
                "kilometers": "8936102.025134536",
                "miles": "5552636.3192511568"
            },
            "orbiting_body": "Earth"
        }
    ],
    "orbital_data": {
        "orbit_id": "2",
        "orbit_determination_date": "2020-03-19 06:30:42",
        "first_observation_date": "2020-03-16",
        "last_observation_date": "2020-03-17",
        "data_arc_in_days": 1,
        "observations_used": 28,
        "orbit_uncertainty": "8",
        "minimum_orbit_intersection": ".0597042",
        "jupiter_tisserand_invariant": "5.440",
        "epoch_osculation": "2458925.5",
        "eccentricity": ".1563216053185428",
        "semi_major_axis": "1.106964360822128",
        "inclination": "35.79483704857383",
        "ascending_node_longitude": "175.7857141163387",
        "orbital_period": "425.4013708613372",
        "perihelion_distance": ".9339219149079984",
        "perihelion_argument": "278.2387339444953",
        "aphelion_distance": "1.280006806736258",
        "perihelion_time": "2458849.136499095976",
        "mean_anomaly": "64.62334681664552",
        "mean_motion": ".8462596142346347",
        "equinox": "J2000",
        "orbit_class": {
            "orbit_class_type": "APO",
            "orbit_class_description": "Near-Earth asteroid orbits which cross the Earth’s orbit similar to that of 1862 Apollo",
            "orbit_class_range": "a (semi-major axis) > 1.0 AU; q (perihelion) < 1.017 AU"
        }
    },
    "is_sentry_object": false
}